{"type": "FeatureCollection", "features": [ {"type": "Feature", "properties": {"norad_id": 44622, "name": "GAOFEN-10R", "group": "resource", "lat": -38.33064917518003, "lon": 111.93092426540609, "alt_km": 632.2410346432944, "timestamp": "2025-12-16T19:34:23.922793+00:00", "meta": {"OBJECT_NAME": "GAOFEN-10R", "OBJECT_ID": "2019-066A", "EPOCH": "2025-12-15T23:09:20.701152", "MEAN_MOTION": 14.82803296, "ECCENTRICITY": 0.00076714, "INCLINATION": 98.0281, "RA_OF_ASC_NODE": 297.4836, "ARG_OF_PERICENTER": 32.5892, "MEAN_ANOMALY": 327.5793, "EPHEMERIS_TYPE": 0, "CLASSIFICATION_TYPE": "U", "NORAD_CAT_ID": 44622, "ELEMENT_SET_NO": 999, "REV_AT_EPOCH": 33522, "BSTAR": 0.00020256317, "MEAN_MOTION_DOT": 1.584e-05, "MEAN_MOTION_DDOT": 0}, "tle": {"line1": "1 44622U 19066A   25349.96482293  .00001584  00000+0  20256-3 0  9991", "line2": "2 44622  98.0281 297.4836 0007671  32.5892 327.5793 14.82803296335221"}}, "geometry": {"type": "Point", "coordinates": [111.93092426540609, -38.33064917518003]}}, {"type": "Feature", "properties": {"norad_id": 44804, "name": "CARTOSAT-3", "group": "resource", "lat": -14.878664417515436, "lon": -131.646833316305, "alt_km": 518.6584504886268, "timestamp": "2025-12-16T19:34:23.922803+00:00", "meta": {"OBJECT_NAME": "CARTOSAT-3", "OBJECT_ID": "2019-081A", "EPOCH": "2025-12-15T23:44:58.854912", "MEAN_MOTION": 15.19179712, "ECCENTRICITY": 0.00140825, "INCLINATION": 97.4584, "RA_OF_ASC_NODE": 49.5323, "ARG_OF_PERICENTER": 72.7318, "MEAN_ANOMALY": 287.5456, "EPHEMERIS_TYPE": 0, "CLASSIFICATION_TYPE": "U", "NORAD_CAT_ID": 44804, "ELEMENT_SET_NO": 999, "REV_AT_EPOCH": 33565, "BSTAR": 0.00016690855, "MEAN_MOTION_DOT": 3.45e-05, "MEAN_MOTION_DDOT": 0}, "tle": {"line1": "1 44804U 19081A   25349.98957008  .00003450  00000+0  16691-3 0  9995", "line2": "2 44804  97.4584  49.5323 0014082  72.7318 287.5456 15.19179712335650"}}, "geometry": {"type": "Point", "coordinates": [-131.646833316305, -14.878664417515436]}}, {"type": "Feature", "properties": {"norad_id": 44819, "name": "GAOFEN-12 01", "group": "resource", "lat": 81.09541364257538, "lon": -121.81052683128792, "alt_km": 620.3023011147225, "timestamp": "2025-12-16T19:34:23.922813+00:00", "meta": {"OBJECT_NAME": "GAOFEN-12 01", "OBJECT_ID": "2019-082A", "EPOCH": "2025-12-15T23:41:11.013792", "MEAN_MOTION": 14.80661193, "ECCENTRICITY": 0.00015014, "INCLINATION": 97.8125, "RA_OF_ASC_NODE": 356.1827, "ARG_OF_PERICENTER": 215.1771, "MEAN_ANOMALY": 144.9342, "EPHEMERIS_TYPE": 0, "CLASSIFICATION_TYPE": "U", "NORAD_CAT_ID": 44819, "ELEMENT_SET_NO": 999, "REV_AT_EPOCH": 32698, "BSTAR": 7.1003359e-05, "MEAN_MOTION_DOT": 4.95e-06, "MEAN_MOTION_DDOT": 0}, "tle": {"line1": "1 44819U 19082A   25349.98693303  .00000495  00000+0  71003-4 0  9992", "line2": "2 44819  97.8125 356.1827 0001501 215.1771 144.9342 14.80661193326987"}}, "geometry": {"type": "Point", "coordinates": [-121.81052683128792, 81.09541364257538]}}, {"type": "Feature", "properties": {"norad_id": 44873, "name": "CSG-1", "group": "resource", "lat": -46.72148234021411, "lon": -16.380681612570402, "alt_km": 630.1829310489802, "timestamp": "2025-12-16T19:34:23.922823+00:00", "meta": {"OBJECT_NAME": "CSG-1", "OBJECT_ID": "2019-092A", "EPOCH": "2025-12-16T10:27:00.089280", "MEAN_MOTION": 14.82145521, "ECCENTRICITY": 0.0001487, "INCLINATION": 97.8809, "RA_OF_ASC_NODE": 171.7039, "ARG_OF_PERICENTER": 86.8831, "MEAN_ANOMALY": 273.2552, "EPHEMERIS_TYPE": 0, "CLASSIFICATION_TYPE": "U", "NORAD_CAT_ID": 44873, "ELEMENT_SET_NO": 999, "REV_AT_EPOCH": 32440, "BSTAR": 9.6665e-05, "MEAN_MOTION_DOT": 7.17e-06, "MEAN_MOTION_DDOT": 0}, "tle": {"line1": "1 44873U 19092A   25350.43541770  .00000717  00000+0  96665-4 0  9993", "line2": "2 44873  97.8809 171.7039 0001487  86.8831 273.2552 14.82145521324403"}}, "geometry": {"type": "Point", "coordinates": [-16.380681612570402, -46.72148234021411]}}, {"type": "Feature", "properties": {"norad_id": 46277, "name": "NEMO-HD", "group": "resource", "lat": 21.010474097743337, "lon": -127.34660791595958, "alt_km": 445.2665942551839, "timestamp": "2025-12-16T19:34:23.922834+00:00", "meta": {"OBJECT_NAME": "NEMO-HD", "OBJECT_ID": "2020-061F", "EPOCH": "2025-12-16T00:10:41.234016", "MEAN_MOTION": 15.40399089, "ECCENTRICITY": 0.00016705, "INCLINATION": 97.2215, "RA_OF_ASC_NODE": 49.0639, "ARG_OF_PERICENTER": 53.7909, "MEAN_ANOMALY": 306.3492, "EPHEMERIS_TYPE": 0, "CLASSIFICATION_TYPE": "U", "NORAD_CAT_ID": 46277, "ELEMENT_SET_NO": 999, "REV_AT_EPOCH": 29374, "BSTAR": 0.00021459566, "MEAN_MOTION_DOT": 8.593e-05, "MEAN_MOTION_DDOT": 0}, "tle": {"line1": "1 46277U 20061F   25350.00742169  .00008593  00000+0  21460-3 0  9999", "line2": "2 46277  97.2215  49.0639 0001670  53.7909 306.3492 15.40399089293742"}}, "geometry": {"type": "Point", "coordinates": [-127.34660791595958, 21.010474097743337]}}, {"type": "Feature", "properties": {"norad_id": 46984, "name": "SENTINEL-6A", "group": "resource", "lat": 7.018291333320201, "lon": -29.29529868036472, "alt_km": 1339.3639182213128, "timestamp": "2025-12-16T19:34:23.922844+00:00", "meta": {"OBJECT_NAME": "SENTINEL-6A", "OBJECT_ID": "2020-086A", "EPOCH": "2025-12-15T20:11:26.426112", "MEAN_MOTION": 12.80930731, "ECCENTRICITY": 0.00077166, "INCLINATION": 66.039, "RA_OF_ASC_NODE": 155.8659, "ARG_OF_PERICENTER": 269.2652, "MEAN_ANOMALY": 90.7479, "EPHEMERIS_TYPE": 0, "CLASSIFICATION_TYPE": "U", "NORAD_CAT_ID": 46984, "ELEMENT_SET_NO": 999, "REV_AT_EPOCH": 23684, "BSTAR": 0.00011367898, "MEAN_MOTION_DOT": -3.5e-07, "MEAN_MOTION_DDOT": 0}, "tle": {"line1": "1 46984U 20086A   25349.84127808 -.00000035  00000+0  11368-3 0  9998", "line2": "2 46984  66.0390 155.8659 0007716 269.2652  90.7479 12.80930731236842"}}, "geometry": {"type": "Point", "coordinates": [-29.29529868036472, 7.018291333320201]}}, {"type": "Feature", "properties": {"norad_id": 48079, "name": "GAOFEN-12 02", "group": "resource", "lat": 72.21873729012475, "lon": -169.24052942487643, "alt_km": 617.7905911065118, "timestamp": "2025-12-16T19:34:23.922854+00:00", "meta": {"OBJECT_NAME": "GAOFEN-12 02", "OBJECT_ID": "2021-026A", "EPOCH": "2025-12-15T23:38:04.545312", "MEAN_MOTION": 14.80679011, "ECCENTRICITY": 0.00035867, "INCLINATION": 97.9852, "RA_OF_ASC_NODE": 343.9755, "ARG_OF_PERICENTER": 94.5873, "MEAN_ANOMALY": 265.5749, "EPHEMERIS_TYPE": 0, "CLASSIFICATION_TYPE": "U", "NORAD_CAT_ID": 48079, "ELEMENT_SET_NO": 999, "REV_AT_EPOCH": 25465, "BSTAR": 7.1752374e-05, "MEAN_MOTION_DOT": 4.99e-06, "MEAN_MOTION_DDOT": 0}, "tle": {"line1": "1 48079U 21026A   25349.98477483  .00000499  00000+0  71752-4 0  9999", "line2": "2 48079  97.9852 343.9755 0003586  94.5873 265.5749 14.80679011254651"}}, "geometry": {"type": "Point", "coordinates": [-169.24052942487643, 72.21873729012475]}}, {"type": "Feature", "properties": {"norad_id": 48268, "name": "PLEIADES NEO 3", "group": "resource", "lat": -7.477341846955743, "lon": -117.84551100643809, "alt_km": 628.0301326400468, "timestamp": "2025-12-16T19:34:23.922865+00:00", "meta": {"OBJECT_NAME": "PLEIADES NEO 3", "OBJECT_ID": "2021-034A", "EPOCH": "2025-12-16T12:14:49.336800", "MEAN_MOTION": 14.81671053, "ECCENTRICITY": 0.000131, "INCLINATION": 97.8948, "RA_OF_ASC_NODE": 62.8972, "ARG_OF_PERICENTER": 96.3461, "MEAN_ANOMALY": 263.7901, "EPHEMERIS_TYPE": 0, "CLASSIFICATION_TYPE": "U", "NORAD_CAT_ID": 48268, "ELEMENT_SET_NO": 999, "REV_AT_EPOCH": 25060, "BSTAR": 0.00011659, "MEAN_MOTION_DOT": 8.66e-06, "MEAN_MOTION_DDOT": 0}, "tle": {"line1": "1 48268U 21034A   25350.51029325  .00000866  00000+0  11659-3 0  9994", "line2": "2 48268  97.8948  62.8972 0001310  96.3461 263.7901 14.81671053250600"}}, "geometry": {"type": "Point", "coordinates": [-117.84551100643809, -7.477341846955743]}}, {"type": "Feature", "properties": {"norad_id": 49070, "name": "PLEIADES NEO 4", "group": "resource", "lat": 7.260716339885277, "lon": 62.18054534188246, "alt_km": 625.9176811692596, "timestamp": "2025-12-16T19:34:23.922875+00:00", "meta": {"OBJECT_NAME": "PLEIADES NEO 4", "OBJECT_ID": "2021-073E", "EPOCH": "2025-12-16T00:05:27.373920", "MEAN_MOTION": 14.8167071, "ECCENTRICITY": 0.00013253, "INCLINATION": 97.8947, "RA_OF_ASC_NODE": 62.3935, "ARG_OF_PERICENTER": 89.712, "MEAN_ANOMALY": 270.4244, "EPHEMERIS_TYPE": 0, "CLASSIFICATION_TYPE": "U", "NORAD_CAT_ID": 49070, "ELEMENT_SET_NO": 999, "REV_AT_EPOCH": 23424, "BSTAR": -3.109413e-05, "MEAN_MOTION_DOT": -2.97e-06, "MEAN_MOTION_DDOT": 0}, "tle": {"line1": "1 49070U 21073E   25350.00378905 -.00000297  00000+0 -31094-4 0  9990", "line2": "2 49070  97.8947  62.3935 0001325  89.7120 270.4244 14.81670710234245"}}, "geometry": {"type": "Point", "coordinates": [62.18054534188246, 7.260716339885277]}}, {"type": "Feature", "properties": {"norad_id": 49260, "name": "LANDSAT 9", "group": "resource", "lat": 23.841047082327897, "lon": 55.20974674873256, "alt_km": 701.6279340170777, "timestamp": "2025-12-16T19:34:23.922886+00:00", "meta": {"OBJECT_NAME": "LANDSAT 9", "OBJECT_ID": "2021-088A", "EPOCH": "2025-12-15T22:02:16.785312", "MEAN_MOTION": 14.57101186, "ECCENTRICITY": 0.00011407, "INCLINATION": 98.2092, "RA_OF_ASC_NODE": 57.9832, "ARG_OF_PERICENTER": 89.8233, "MEAN_ANOMALY": 270.3096, "EPHEMERIS_TYPE": 0, "CLASSIFICATION_TYPE": "U", "NORAD_CAT_ID": 49260, "ELEMENT_SET_NO": 999, "REV_AT_EPOCH": 22431, "BSTAR": 0.00010153374, "MEAN_MOTION_DOT": 4.12e-06, "MEAN_MOTION_DDOT": 0}, "tle": {"line1": "1 49260U 21088A   25349.91824983  .00000412  00000+0  10153-3 0  9996", "line2": "2 49260  98.2092  57.9832 0001140  89.8233 270.3096 14.57101186224319"}}, "geometry": {"type": "Point", "coordinates": [55.20974674873256, 23.841047082327897]}}]}